{
  "type": "FeatureCollection",
  "features": [
    {
      "type": "Feature",
      "properties": {
        "norad_id": 26766,
        "name": "INTELSAT 10 (IS-10)",
        "group": "intelsat",
        "lat": -8.633070125389551,
        "lon": -31.400974121958505,
        "alt_km": 36100.61468232811,
        "timestamp": "2025-12-14T07:33:19.145578+00:00",
        "meta_object_name": "INTELSAT 10 (IS-10)",
        "meta_object_id": "2001-019A",
        "meta_epoch": "2025-12-13T14:05:32.067744",
        "meta_mean_motion": 0.99078362,
        "meta_eccentricity": 0.00077388,
        "meta_inclination": 8.632,
        "meta_ra_of_asc_node": 61.1493,
        "meta_arg_of_pericenter": 225.9608,
        "meta_mean_anomaly": 141.9213,
        "meta_ephemeris_type": 0,
        "meta_classification_type": "U",
        "meta_norad_cat_id": 26766,
        "meta_element_set_no": 999,
        "meta_rev_at_epoch": 4374,
        "meta_bstar": 0,
        "meta_mean_motion_dot": -2.69e-06,
        "meta_mean_motion_ddot": 0,
        "tle_line1": "1 26766U 01019A   25347.58717671 -.00000269  00000+0  00000+0 0  9997",
        "tle_line2": "2 26766   8.6320  61.1493 0007738 225.9608 141.9213  0.99078362 43742"
      },
      "geometry": {
        "type": "Point",
        "coordinates": [
          -31.400974121958505,
          -8.633070125389551
        ]
      }
    },
    {
      "type": "Feature",
      "properties": {
        "norad_id": 26900,
        "name": "INTELSAT 902 (IS-902)",
        "group": "intelsat",
        "lat": 5.390689759330725,
        "lon": 146.33556548858792,
        "alt_km": 35792.736910660016,
        "timestamp": "2025-12-14T07:33:19.145604+00:00",
        "meta_object_name": "INTELSAT 902 (IS-902)",
        "meta_object_id": "2001-039A",
        "meta_epoch": "2025-12-11T04:42:42.842016",
        "meta_mean_motion": 1.00272526,
        "meta_eccentricity": 0.00044264,
        "meta_inclination": 5.6424,
        "meta_ra_of_asc_node": 74.0881,
        "meta_arg_of_pericenter": 184.9809,
        "meta_mean_anomaly": 201.6699,
        "meta_ephemeris_type": 0,
        "meta_classification_type": "U",
        "meta_norad_cat_id": 26900,
        "meta_element_set_no": 999,
        "meta_rev_at_epoch": 8881,
        "meta_bstar": 0,
        "meta_mean_motion_dot": -2.78e-06,
        "meta_mean_motion_ddot": 0,
        "tle_line1": "1 26900U 01039A   25345.19632919 -.00000278  00000+0  00000+0 0  9995",
        "tle_line2": "2 26900   5.6424  74.0881 0004426 184.9809 201.6699  1.00272526 88816"
      },
      "geometry": {
        "type": "Point",
        "coordinates": [
          146.33556548858792,
          5.390689759330725
        ]
      }
    },
    {
      "type": "Feature",
      "properties": {
        "norad_id": 27380,
        "name": "INTELSAT 904 (IS-904)",
        "group": "intelsat",
        "lat": 6.4466096564813,
        "lon": 165.07438968387962,
        "alt_km": 35789.893310599466,
        "timestamp": "2025-12-14T07:33:19.145620+00:00",
        "meta_object_name": "INTELSAT 904 (IS-904)",
        "meta_object_id": "2002-007A",
        "meta_epoch": "2025-12-13T15:00:41.787360",
        "meta_mean_motion": 1.00272569,
        "meta_eccentricity": 0.00015439,
        "meta_inclination": 6.457,
        "meta_ra_of_asc_node": 71.4225,
        "meta_arg_of_pericenter": 231.5446,
        "meta_mean_anomaly": 333.2596,
        "meta_ephemeris_type": 0,
        "meta_classification_type": "U",
        "meta_norad_cat_id": 27380,
        "meta_element_set_no": 999,
        "meta_rev_at_epoch": 4990,
        "meta_bstar": 0,
        "meta_mean_motion_dot": -2.13e-06,
        "meta_mean_motion_ddot": 0,
        "tle_line1": "1 27380U 02007A   25347.62548365 -.00000213  00000+0  00000+0 0  9994",
        "tle_line2": "2 27380   6.4570  71.4225 0001543 231.5446 333.2596  1.00272569 49908"
      },
      "geometry": {
        "type": "Point",
        "coordinates": [
          165.07438968387962,
          6.4466096564813
        ]
      }
    },
    {
      "type": "Feature",
      "properties": {
        "norad_id": 27426,
        "name": "DIRECTV 5 (TEMPO 1)",
        "group": "intelsat",
        "lat": 0.6943582792925298,
        "lon": 86.41647214779952,
        "alt_km": 35800.261003735184,
        "timestamp": "2025-12-14T07:33:19.145634+00:00",
        "meta_object_name": "DIRECTV 5 (TEMPO 1)",
        "meta_object_id": "2002-023A",
        "meta_epoch": "2025-12-13T12:58:10.801056",
        "meta_mean_motion": 1.00272204,
        "meta_eccentricity": 0.00034433,
        "meta_inclination": 4.4044,
        "meta_ra_of_asc_node": 77.6443,
        "meta_arg_of_pericenter": 197.8329,
        "meta_mean_anomaly": 251.4153,
        "meta_ephemeris_type": 0,
        "meta_classification_type": "U",
        "meta_norad_cat_id": 27426,
        "meta_element_set_no": 999,
        "meta_rev_at_epoch": 8626,
        "meta_bstar": 0,
        "meta_mean_motion_dot": -4.3e-07,
        "meta_mean_motion_ddot": 0,
        "tle_line1": "1 27426U 02023A   25347.54040279 -.00000043  00000+0  00000+0 0  9996",
        "tle_line2": "2 27426   4.4044  77.6443 0003443 197.8329 251.4153  1.00272204 86264"
      },
      "geometry": {
        "type": "Point",
        "coordinates": [
          86.41647214779952,
          0.6943582792925298
        ]
      }
    },
    {
      "type": "Feature",
      "properties": {
        "norad_id": 27438,
        "name": "INTELSAT 905 (IS-905)",
        "group": "intelsat",
        "lat": -1.355091757462669,
        "lon": 59.465062057968545,
        "alt_km": 35795.06330543641,
        "timestamp": "2025-12-14T07:33:19.145647+00:00",
        "meta_object_name": "INTELSAT 905 (IS-905)",
        "meta_object_id": "2002-027A",
        "meta_epoch": "2025-12-13T10:28:18.325344",
        "meta_mean_motion": 1.00273844,
        "meta_eccentricity": 0.0002665,
        "meta_inclination": 6.2877,
        "meta_ra_of_asc_node": 72.0486,
        "meta_arg_of_pericenter": 200.4661,
        "meta_mean_anomaly": 189.7386,
        "meta_ephemeris_type": 0,
        "meta_classification_type": "U",
        "meta_norad_cat_id": 27438,
        "meta_element_set_no": 999,
        "meta_rev_at_epoch": 4950,
        "meta_bstar": 0,
        "meta_mean_motion_dot": 1.06e-06,
        "meta_mean_motion_ddot": 0,
        "tle_line1": "1 27438U 02027A   25347.43632321  .00000106  00000+0  00000+0 0  9995",
        "tle_line2": "2 27438   6.2877  72.0486 0002665 200.4661 189.7386  1.00273844 49500"
      },
      "geometry": {
        "type": "Point",
        "coordinates": [
          59.465062057968545,
          -1.355091757462669
        ]
      }
    },
    {
      "type": "Feature",
      "properties": {
        "norad_id": 27445,
        "name": "GALAXY 3C (G-3C)",
        "group": "intelsat",
        "lat": 1.198969927394525,
        "lon": 101.65066804139069,
        "alt_km": 35784.05866960237,
        "timestamp": "2025-12-14T07:33:19.145659+00:00",
        "meta_object_name": "GALAXY 3C (G-3C)",
        "meta_object_id": "2002-030A",
        "meta_epoch": "2025-12-13T11:58:04.541952",
        "meta_mean_motion": 1.00271583,
        "meta_eccentricity": 0.00010728,
        "meta_inclination": 3.2663,
        "meta_ra_of_asc_node": 80.4998,
        "meta_arg_of_pericenter": 85.3822,
        "meta_mean_anomaly": 1.2028,
        "meta_ephemeris_type": 0,
        "meta_classification_type": "U",
        "meta_norad_cat_id": 27445,
        "meta_element_set_no": 999,
        "meta_rev_at_epoch": 4463,
        "meta_bstar": 0,
        "meta_mean_motion_dot": -1.38e-06,
        "meta_mean_motion_ddot": 0,
        "tle_line1": "1 27445U 02030A   25347.49866368 -.00000138  00000+0  00000+0 0  9999",
        "tle_line2": "2 27445   3.2663  80.4998 0001072  85.3822   1.2028  1.00271583 44637"
      },
      "geometry": {
        "type": "Point",
        "coordinates": [
          101.65066804139069,
          1.198969927394525
        ]
      }
    },
    {
      "type": "Feature",
      "properties": {
        "norad_id": 27513,
        "name": "INTELSAT 906 (IS-906)",
        "group": "intelsat",
        "lat": -0.5280506453959644,
        "lon": -99.34353734388264,
        "alt_km": 35760.14316051008,
        "timestamp": "2025-12-14T07:33:19.145672+00:00",
        "meta_object_name": "INTELSAT 906 (IS-906)",
        "meta_object_id": "2002-041A",
        "meta_epoch": "2025-12-13T08:37:03.527040",
        "meta_mean_motion": 1.00271606,
        "meta_eccentricity": 0.00062023,
        "meta_inclination": 5.3305,
        "meta_ra_of_asc_node": 75.2238,
        "meta_arg_of_pericenter": 193.3176,
        "meta_mean_anomaly": 7.1431,
        "meta_ephemeris_type": 0,
        "meta_classification_type": "U",
        "meta_norad_cat_id": 27513,
        "meta_element_set_no": 999,
        "meta_rev_at_epoch": 8516,
        "meta_bstar": 0,
        "meta_mean_motion_dot": 2.6e-07,
        "meta_mean_motion_ddot": 0,
        "tle_line1": "1 27513U 02041A   25347.35906860  .00000026  00000+0  00000+0 0  9999",
        "tle_line2": "2 27513   5.3305  75.2238 0006202 193.3176   7.1431  1.00271606 85162"
      },
      "geometry": {
        "type": "Point",
        "coordinates": [
          -99.34353734388264,
          -0.5280506453959644
        ]
      }
    }
  ]
}